{
  "norad_id": 59664,
  "name": "STARLINK-31910",
  "history": [
    {
      "epoch": "2026-03-28T20:01:33.045600Z",
      "apogee_km": 483.88633064720307,
      "perigee_km": 482.16404171522754,
      "latitude_deg": 6.441596843842406e-05,
      "longitude_deg": 166.8207105169702,
      "height_km": 482.6496740446516,
      "semi_major_axis_km": 6861.1621861812155,
      "eccentricity": 0.00012551,
      "inclination_deg": 43.0029,
      "raan_deg": 293.4575,
      "arg_perigee_deg": 280.1944,
      "mean_anomaly_deg": 79.8767,
      "mean_motion_rev_day": 15.27587985
    },
    {
      "epoch": "2026-03-28T23:09:51.825888Z",
      "apogee_km": 483.87908314607284,
      "perigee_km": 482.18437447005726,
      "latitude_deg": -3.826896064701252e-05,
      "longitude_deg": 118.87555409926874,
      "height_km": 482.57553116621983,
      "semi_major_axis_km": 6861.168728808065,
      "eccentricity": 0.0001235,
      "inclination_deg": 43.0039,
      "raan_deg": 292.7196,
      "arg_perigee_deg": 285.9739,
      "mean_anomaly_deg": 74.0976,
      "mean_motion_rev_day": 15.275858
    },
    {
      "epoch": "2026-03-29T22:42:13.489344Z",
      "apogee_km": 483.913221426541,
      "perigee_km": 482.2038231741144,
      "latitude_deg": 5.783911775667334e-05,
      "longitude_deg": 119.2774658574703,
      "height_km": 482.8875906587763,
      "semi_major_axis_km": 6861.195522300327,
      "eccentricity": 0.00012457,
      "inclination_deg": 43.002,
      "raan_deg": 287.1784,
      "arg_perigee_deg": 266.4926,
      "mean_anomaly_deg": 93.5784,
      "mean_motion_rev_day": 15.27576852
    },
    {
      "epoch": "2026-03-30T14:23:47.836608Z",
      "apogee_km": 483.5417149103341,
      "perigee_km": 482.60515968564323,
      "latitude_deg": -3.4550989194061868e-06,
      "longitude_deg": -120.45169582838223,
      "height_km": 482.9697211070573,
      "semi_major_axis_km": 6861.210437297988,
      "eccentricity": 6.825e-05,
      "inclination_deg": 43.0018,
      "raan_deg": 283.4869,
      "arg_perigee_deg": 255.1458,
      "mean_anomaly_deg": 104.9318,
      "mean_motion_rev_day": 15.27571871
    },
    {
      "epoch": "2026-03-30T19:06:15.617376Z",
      "apogee_km": 484.01767211121114,
      "perigee_km": 482.1128651373956,
      "latitude_deg": -7.95759149815572e-06,
      "longitude_deg": 167.63020733527344,
      "height_km": 482.97294964655197,
      "semi_major_axis_km": 6861.2022686243035,
      "eccentricity": 0.00013881,
      "inclination_deg": 43.0037,
      "raan_deg": 282.3779,
      "arg_perigee_deg": 262.1181,
      "mean_anomaly_deg": 97.9513,
      "mean_motion_rev_day": 15.27574599
    },
    {
      "epoch": "2026-03-31T13:56:08.096928Z",
      "apogee_km": 484.00590917178306,
      "perigee_km": 482.09987062037,
      "latitude_deg": -3.710714948567395e-06,
      "longitude_deg": -120.0428236091125,
      "height_km": 482.7472329527915,
      "semi_major_axis_km": 6861.189889896076,
      "eccentricity": 0.0001389,
      "inclination_deg": 43.0027,
      "raan_deg": 277.9469,
      "arg_perigee_deg": 274.9757,
      "mean_anomaly_deg": 85.0936,
      "mean_motion_rev_day": 15.27578733
    },
    {
      "epoch": "2026-03-31T23:21:03.758688Z",
      "apogee_km": 483.99230523572623,
      "perigee_km": 482.07927303865927,
      "latitude_deg": 3.9016869845781e-05,
      "longitude_deg": 96.12371923526472,
      "height_km": 482.6420004597323,
      "semi_major_axis_km": 6861.172789137192,
      "eccentricity": 0.00013941,
      "inclination_deg": 43.0032,
      "raan_deg": 275.732,
      "arg_perigee_deg": 280.2888,
      "mean_anomaly_deg": 79.7807,
      "mean_motion_rev_day": 15.27584444
    },
    {
      "epoch": "2026-04-02T13:00:50.927040Z",
      "apogee_km": 484.12187719432586,
      "perigee_km": 482.11152985919216,
      "latitude_deg": 1.1274030652666494e-05,
      "longitude_deg": -119.23301214845594,
      "height_km": 482.8644209956669,
      "semi_major_axis_km": 6861.253703526759,
      "eccentricity": 0.0001465,
      "inclination_deg": 43.0037,
      "raan_deg": 266.8686,
      "arg_perigee_deg": 271.6792,
      "mean_anomaly_deg": 88.3892,
      "mean_motion_rev_day": 15.27557422
    },
    {
      "epoch": "2026-04-03T12:33:09.809280Z",
      "apogee_km": 483.9603172131201,
      "perigee_km": 482.16652497502855,
      "latitude_deg": -5.5686125028636544e-06,
      "longitude_deg": -118.81880089240495,
      "height_km": 483.02438856406576,
      "semi_major_axis_km": 6861.200421094074,
      "eccentricity": 0.00013072,
      "inclination_deg": 43.0038,
      "raan_deg": 261.3282,
      "arg_perigee_deg": 258.1637,
      "mean_anomaly_deg": 101.9068,
      "mean_motion_rev_day": 15.27575216
    },
    {
      "epoch": "2026-04-04T19:56:17.609568Z",
      "apogee_km": 484.0378826090582,
      "perigee_km": 482.0481404057209,
      "latitude_deg": -2.5783953078631763e-05,
      "longitude_deg": 121.72541883920178,
      "height_km": 483.1568784572279,
      "semi_major_axis_km": 6861.180011507389,
      "eccentricity": 0.000145,
      "inclination_deg": 43.0037,
      "raan_deg": 253.9439,
      "arg_perigee_deg": 250.2106,
      "mean_anomaly_deg": 109.8589,
      "mean_motion_rev_day": 15.27582032
    },
    {
      "epoch": "2026-04-05T11:37:53.138784Z",
      "apogee_km": 483.8488795165331,
      "perigee_km": 482.3396830838983,
      "latitude_deg": -2.3012986296757715e-05,
      "longitude_deg": -118.01091456447894,
      "height_km": 483.34965607115083,
      "semi_major_axis_km": 6861.231281300215,
      "eccentricity": 0.00010998,
      "inclination_deg": 43.0019,
      "raan_deg": 250.2501,
      "arg_perigee_deg": 230.5966,
      "mean_anomaly_deg": 129.4788,
      "mean_motion_rev_day": 15.2756491
    },
    {
      "epoch": "2026-04-07T10:42:33.871104Z",
      "apogee_km": 483.9855824557062,
      "perigee_km": 482.21236463070363,
      "latitude_deg": 5.111164506753246e-05,
      "longitude_deg": -117.19248221694616,
      "height_km": 483.118859540736,
      "semi_major_axis_km": 6861.235973543205,
      "eccentricity": 0.00012922,
      "inclination_deg": 43.0006,
      "raan_deg": 239.1716,
      "arg_perigee_deg": 254.0736,
      "mean_anomaly_deg": 105.9974,
      "mean_motion_rev_day": 15.27563343
    },
    {
      "epoch": "2026-04-08T10:14:55.596768Z",
      "apogee_km": 483.7482089463638,
      "perigee_km": 482.3947669600293,
      "latitude_deg": -1.039162130262701e-05,
      "longitude_deg": -116.78790184982216,
      "height_km": 482.91435711097813,
      "semi_major_axis_km": 6861.208487953196,
      "eccentricity": 9.863e-05,
      "inclination_deg": 43.0014,
      "raan_deg": 233.6335,
      "arg_perigee_deg": 264.371,
      "mean_anomaly_deg": 95.7029,
      "mean_motion_rev_day": 15.27572522
    },
    {
      "epoch": "2026-04-09T08:13:06.229344Z",
      "apogee_km": 483.84198495632063,
      "perigee_km": 482.25842294964787,
      "latitude_deg": -8.649422626157515e-06,
      "longitude_deg": -92.40546539701481,
      "height_km": 482.986623653536,
      "semi_major_axis_km": 6861.1872039529835,
      "eccentricity": 0.0001154,
      "inclination_deg": 43.0009,
      "raan_deg": 228.4625,
      "arg_perigee_deg": 258.3514,
      "mean_anomaly_deg": 101.7208,
      "mean_motion_rev_day": 15.2757963
    },
    {
      "epoch": "2026-04-11T18:16:52.864608Z",
      "apogee_km": 483.71640455274337,
      "perigee_km": 482.3112408642519,
      "latitude_deg": 2.9135232305812127e-05,
      "longitude_deg": 100.60539501133604,
      "height_km": 482.53081159430315,
      "semi_major_axis_km": 6861.150822708497,
      "eccentricity": 0.0001024,
      "inclination_deg": 43.0035,
      "raan_deg": 214.8022,
      "arg_perigee_deg": 291.6976,
      "mean_anomaly_deg": 68.3767,
      "mean_motion_rev_day": 15.2759178
    },
    {
      "epoch": "2026-04-13T00:05:52.989792Z",
      "apogee_km": 483.4608370067763,
      "perigee_km": 482.66301679555636,
      "latitude_deg": 1.3724157651352032e-05,
      "longitude_deg": 5.11472768704803,
      "height_km": 482.6434142917674,
      "semi_major_axis_km": 6861.1989269011665,
      "eccentricity": 5.814e-05,
      "inclination_deg": 42.9964,
      "raan_deg": 207.7866,
      "arg_perigee_deg": 61.0635,
      "mean_anomaly_deg": 299.0275,
      "mean_motion_rev_day": 15.27575715
    }
  ]
}